{"fetched_at":"2026-07-19T17:31:08.183Z","source":"https://celestrak.org/NORAD/elements/gp.php?GROUP=kuiper&FORMAT=JSON","constellation":"kuiper","records":[{"OBJECT_NAME":"KUIPER-00008","OBJECT_ID":"2025-088A","EPOCH":"2026-07-18T06:30:32.708160","CLASSIFICATION_TYPE":"U","MEAN_MOTION":14.79927458,"ECCENTRICITY":0.00003926,"INCLINATION":51.8985,"RA_OF_ASC_NODE":230.5765,"ARG_OF_PERICENTER":88.1854,"MEAN_ANOMALY":271.9154,"EPHEMERIS_TYPE":0,"NORAD_CAT_ID":63724,"ELEMENT_SET_NO":999,"REV_AT_EPOCH":6738,"BSTAR":-0.000090390717,"MEAN_MOTION_DOT":-0.0000091,"MEAN_MOTION_DDOT":0},{"OBJECT_NAME":"KUIPER-00009","OBJECT_ID":"2025-088B","EPOCH":"2026-07-19T02:11:56.317920","CLASSIFICATION_TYPE":"U","MEAN_MOTION":14.81154852,"ECCENTRICITY":0.00003524,"INCLINATION":51.9008,"RA_OF_ASC_NODE":244.5324,"ARG_OF_PERICENTER":93.2842,"MEAN_ANOMALY":266.8162,"EPHEMERIS_TYPE":0,"NORAD_CAT_ID":63725,"ELEMENT_SET_NO":999,"REV_AT_EPOCH":6725,"BSTAR":0.00022684435,"MEAN_MOTION_DOT":0.00001557,"MEAN_MOTION_DDOT":0},{"OBJECT_NAME":"KUIPER-00010","OBJECT_ID":"2025-088C","EPOCH":"2026-07-18T18:47:39.382944","CLASSIFICATION_TYPE":"U","MEAN_MOTION":14.79924895,"ECCENTRICITY":0.00003323,"INCLINATION":51.9007,"RA_OF_ASC_NODE":223.4167,"ARG_OF_PERICENTER":79.1887,"MEAN_ANOMALY":280.9113,"EPHEMERIS_TYPE":0,"NORAD_CAT_ID":63726,"ELEMENT_SET_NO":999,"REV_AT_EPOCH":6714,"BSTAR":0.000045376668,"MEAN_MOTION_DOT":0.00000125,"MEAN_MOTION_DDOT":0},{"OBJECT_NAME":"KUIPER-00011","OBJECT_ID":"2025-088D","EPOCH":"2026-07-19T01:53:36.097728","CLASSIFICATION_TYPE":"U","MEAN_MOTION":14.79935536,"ECCENTRICITY":0.00002979,"INCLINATION":51.8999,"RA_OF_ASC_NODE":229.6582,"ARG_OF_PERICENTER":70.9745,"MEAN_ANOMALY":289.1249,"EPHEMERIS_TYPE":0,"NORAD_CAT_ID":63727,"ELEMENT_SET_NO":999,"REV_AT_EPOCH":6721,"BSTAR":0.000037863066,"MEAN_MOTION_DOT":6.8e-7,"MEAN_MOTION_DDOT":0},{"OBJECT_NAME":"KUIPER-00012","OBJECT_ID":"2025-088E","EPOCH":"2026-07-19T04:42:45.910944","CLASSIFICATION_TYPE":"U","MEAN_MOTION":14.79926086,"ECCENTRICITY":0.00004194,"INCLINATION":51.9005,"RA_OF_ASC_NODE":214.0735,"ARG_OF_PERICENTER":73.8895,"MEAN_ANOMALY":286.2113,"EPHEMERIS_TYPE":0,"NORAD_CAT_ID":63728,"ELEMENT_SET_NO":999,"REV_AT_EPOCH":6739,"BSTAR":0.000074698896,"MEAN_MOTION_DOT":0.00000348,"MEAN_MOTION_DDOT":0},{"OBJECT_NAME":"KUIPER-00013","OBJECT_ID":"2025-088F","EPOCH":"2026-07-18T12:28:28.849440","CLASSIFICATION_TYPE":"U","MEAN_MOTION":14.79929704,"ECCENTRICITY":0.00002253,"INCLINATION":51.9012,"RA_OF_ASC_NODE":249.585,"ARG_OF_PERICENTER":78.7449,"MEAN_ANOMALY":281.3539,"EPHEMERIS_TYPE":0,"NORAD_CAT_ID":63729,"ELEMENT_SET_NO":999,"REV_AT_EPOCH":6694,"BSTAR":0.000080121129,"MEAN_MOTION_DOT":0.0000039,"MEAN_MOTION_DDOT":0},{"OBJECT_NAME":"KUIPER-00014","OBJECT_ID":"2025-088G","EPOCH":"2026-07-19T03:52:17.385312","CLASSIFICATION_TYPE":"U","MEAN_MOTION":14.79927823,"ECCENTRICITY":0.00004251,"INCLINATION":51.9007,"RA_OF_ASC_NODE":246.6911,"ARG_OF_PERICENTER":74.1911,"MEAN_ANOMALY":285.9098,"EPHEMERIS_TYPE":0,"NORAD_CAT_ID":63730,"ELEMENT_SET_NO":999,"REV_AT_EPOCH":6685,"BSTAR":0.000033916206,"MEAN_MOTION_DOT":3.7e-7,"MEAN_MOTION_DDOT":0},{"OBJECT_NAME":"KUIPER-00015","OBJECT_ID":"2025-088H","EPOCH":"2026-07-19T04:25:20.944416","CLASSIFICATION_TYPE":"U","MEAN_MOTION":14.79940309,"ECCENTRICITY":0.00002502,"INCLINATION":51.8992,"RA_OF_ASC_NODE":256.6499,"ARG_OF_PERICENTER":87.7108,"MEAN_ANOMALY":272.3883,"EPHEMERIS_TYPE":0,"NORAD_CAT_ID":63731,"ELEMENT_SET_NO":999,"REV_AT_EPOCH":6717,"BSTAR":0.000061441944,"MEAN_MOTION_DOT":0.00000247,"MEAN_MOTION_DDOT":0},{"OBJECT_NAME":"KUIPER-00016","OBJECT_ID":"2025-088J","EPOCH":"2026-07-19T03:48:21.671424","CLASSIFICATION_TYPE":"U","MEAN_MOTION":14.79947191,"ECCENTRICITY":0.00004217,"INCLINATION":51.9001,"RA_OF_ASC_NODE":249.2167,"ARG_OF_PERICENTER":68.7444,"MEAN_ANOMALY":291.3563,"EPHEMERIS_TYPE":0,"NORAD_CAT_ID":63732,"ELEMENT_SET_NO":999,"REV_AT_EPOCH":6681,"BSTAR":0.00017470501,"MEAN_MOTION_DOT":0.00001111,"MEAN_MOTION_DDOT":0},{"OBJECT_NAME":"KUIPER-00018","OBJECT_ID":"2025-088K","EPOCH":"2026-07-19T03:15:18.883872","CLASSIFICATION_TYPE":"U","MEAN_MOTION":14.79927286,"ECCENTRICITY":0.00003932,"INCLINATION":51.9023,"RA_OF_ASC_NODE":239.3497,"ARG_OF_PERICENTER":80.3127,"MEAN_ANOMALY":279.788,"EPHEMERIS_TYPE":0,"NORAD_CAT_ID":63733,"ELEMENT_SET_NO":999,"REV_AT_EPOCH":6695,"BSTAR":-0.00001054973,"MEAN_MOTION_DOT":-0.00000301,"MEAN_MOTION_DDOT":0},{"OBJECT_NAME":"KUIPER-00019","OBJECT_ID":"2025-088L","EPOCH":"2026-07-18T19:47:30.103872","CLASSIFICATION_TYPE":"U","MEAN_MOTION":14.79925295,"ECCENTRICITY":0.00004185,"INCLINATION":51.8999,"RA_OF_ASC_NODE":239.4828,"ARG_OF_PERICENTER":80.7725,"MEAN_ANOMALY":279.3285,"EPHEMERIS_TYPE":0,"NORAD_CAT_ID":63734,"ELEMENT_SET_NO":999,"REV_AT_EPOCH":6692,"BSTAR":0.000056756026,"MEAN_MOTION_DOT":0.00000212,"MEAN_MOTION_DDOT":0},{"OBJECT_NAME":"KUIPER-00020","OBJECT_ID":"2025-088M","EPOCH":"2026-07-18T20:42:30.013632","CLASSIFICATION_TYPE":"U","MEAN_MOTION":14.79916243,"ECCENTRICITY":0.00005487,"INCLINATION":51.9007,"RA_OF_ASC_NODE":243.0587,"ARG_OF_PERICENTER":68.9742,"MEAN_ANOMALY":291.1279,"EPHEMERIS_TYPE":0,"NORAD_CAT_ID":63735,"ELEMENT_SET_NO":999,"REV_AT_EPOCH":6708,"BSTAR":0.00010259157,"MEAN_MOTION_DOT":0.00000561,"MEAN_MOTION_DDOT":0},{"OBJECT_NAME":"KUIPER-00021","OBJECT_ID":"2025-088N","EPOCH":"2026-07-19T02:22:46.800192","CLASSIFICATION_TYPE":"U","MEAN_MOTION":14.799387,"ECCENTRICITY":0.00003101,"INCLINATION":51.9003,"RA_OF_ASC_NODE":241.9691,"ARG_OF_PERICENTER":71.9681,"MEAN_ANOMALY":288.1316,"EPHEMERIS_TYPE":0,"NORAD_CAT_ID":63736,"ELEMENT_SET_NO":999,"REV_AT_EPOCH":6695,"BSTAR":0.000064790792,"MEAN_MOTION_DOT":0.00000273,"MEAN_MOTION_DDOT":0},{"OBJECT_NAME":"KUIPER-00023","OBJECT_ID":"2025-088P","EPOCH":"2026-07-18T10:55:04.106496","CLASSIFICATION_TYPE":"U","MEAN_MOTION":14.79909599,"ECCENTRICITY":0.00003476,"INCLINATION":51.9004,"RA_OF_ASC_NODE":247.3067,"ARG_OF_PERICENTER":77.2093,"MEAN_ANOMALY":282.8908,"EPHEMERIS_TYPE":0,"NORAD_CAT_ID":63737,"ELEMENT_SET_NO":999,"REV_AT_EPOCH":6712,"BSTAR":0.00010624034,"MEAN_MOTION_DOT":0.00000589,"MEAN_MOTION_DDOT":0},{"OBJECT_NAME":"KUIPER-00024","OBJECT_ID":"2025-088Q","EPOCH":"2026-07-19T01:49:42.974976","CLASSIFICATION_TYPE":"U","MEAN_MOTION":14.79935537,"ECCENTRICITY":0.00003553,"INCLINATION":51.9029,"RA_OF_ASC_NODE":232.1596,"ARG_OF_PERICENTER":77.3208,"MEAN_ANOMALY":282.7794,"EPHEMERIS_TYPE":0,"NORAD_CAT_ID":63738,"ELEMENT_SET_NO":999,"REV_AT_EPOCH":6751,"BSTAR":0.000042864268,"MEAN_MOTION_DOT":0.00000106,"MEAN_MOTION_DDOT":0},{"OBJECT_NAME":"KUIPER-00025","OBJECT_ID":"2025-088R","EPOCH":"2026-07-18T19:57:41.973120","CLASSIFICATION_TYPE":"U","MEAN_MOTION":14.79944823,"ECCENTRICITY":0.00003869,"INCLINATION":51.9029,"RA_OF_ASC_NODE":240.7218,"ARG_OF_PERICENTER":42.9713,"MEAN_ANOMALY":317.128,"EPHEMERIS_TYPE":0,"NORAD_CAT_ID":63739,"ELEMENT_SET_NO":999,"REV_AT_EPOCH":6723,"BSTAR":0.000094106878,"MEAN_MOTION_DOT":0.00000497,"MEAN_MOTION_DDOT":0}]}
