[
  {
    "name": "KUIPER-00008",
    "noradId": "63724",
    "line1": "1 63724U 25088A   26199.27121190 -.00000910  00000+0 -90391-4 0  9992",
    "line2": "2 63724  51.8985 230.5765 0000392  88.1854 271.9154 14.79927458 67385"
  },
  {
    "name": "KUIPER-00009",
    "noradId": "63725",
    "line1": "1 63725U 25088B   26200.09162405  .00001557  00000+0  22684-3 0  9995",
    "line2": "2 63725  51.9008 244.5324 0000352  93.2842 266.8162 14.81154852 67250"
  },
  {
    "name": "KUIPER-00010",
    "noradId": "63726",
    "line1": "1 63726U 25088C   26199.78309471  .00000125  00000+0  45377-4 0  9990",
    "line2": "2 63726  51.9007 223.4167 0000332  79.1887 280.9113 14.79924895 67141"
  },
  {
    "name": "KUIPER-00011",
    "noradId": "63727",
    "line1": "1 63727U 25088D   26200.07889002  .00000068  00000+0  37863-4 0  9996",
    "line2": "2 63727  51.8999 229.6582 0000297  70.9745 289.1249 14.79935536 67215"
  },
  {
    "name": "KUIPER-00012",
    "noradId": "63728",
    "line1": "1 63728U 25088E   26200.19636471  .00000348  00000+0  74699-4 0  9999",
    "line2": "2 63728  51.9005 214.0735 0000419  73.8895 286.2113 14.79926086 67394"
  },
  {
    "name": "KUIPER-00013",
    "noradId": "63729",
    "line1": "1 63729U 25088F   26199.51977835  .00000390  00000+0  80121-4 0  9999",
    "line2": "2 63729  51.9012 249.5850 0000225  78.7449 281.3539 14.79929704 66946"
  },
  {
    "name": "KUIPER-00014",
    "noradId": "63730",
    "line1": "1 63730U 25088G   26200.16131233  .00000037  00000+0  33916-4 0  9997",
    "line2": "2 63730  51.9007 246.6911 0000425  74.1911 285.9098 14.79927823 66854"
  },
  {
    "name": "KUIPER-00015",
    "noradId": "63731",
    "line1": "1 63731U 25088H   26200.18427019  .00000247  00000+0  61442-4 0  9998",
    "line2": "2 63731  51.8992 256.6499 0000250  87.7108 272.3883 14.79940309 67175"
  },
  {
    "name": "KUIPER-00016",
    "noradId": "63732",
    "line1": "1 63732U 25088J   26200.15858416  .00001111  00000+0  17471-3 0  9998",
    "line2": "2 63732  51.9001 249.2167 0000421  68.7444 291.3563 14.79947191 66812"
  },
  {
    "name": "KUIPER-00018",
    "noradId": "63733",
    "line1": "1 63733U 25088K   26200.13563523 -.00000301  00000+0 -10550-4 0  9993",
    "line2": "2 63733  51.9023 239.3497 0000393  80.3127 279.7880 14.79927286 66959"
  },
  {
    "name": "KUIPER-00019",
    "noradId": "63734",
    "line1": "1 63734U 25088L   26199.82465398  .00000212  00000+0  56756-4 0  9995",
    "line2": "2 63734  51.8999 239.4828 0000418  80.7725 279.3285 14.79925295 66926"
  },
  {
    "name": "KUIPER-00020",
    "noradId": "63735",
    "line1": "1 63735U 25088M   26199.86284738  .00000561  00000+0  10259-3 0  9991",
    "line2": "2 63735  51.9007 243.0587 0000548  68.9742 291.1279 14.79916243 67088"
  },
  {
    "name": "KUIPER-00021",
    "noradId": "63736",
    "line1": "1 63736U 25088N   26200.09915278  .00000273  00000+0  64791-4 0  9991",
    "line2": "2 63736  51.9003 241.9691 0000310  71.9681 288.1316 14.79938700 66956"
  },
  {
    "name": "KUIPER-00023",
    "noradId": "63737",
    "line1": "1 63737U 25088P   26199.45490864  .00000589  00000+0  10624-3 0  9993",
    "line2": "2 63737  51.9004 247.3067 0000347  77.2093 282.8908 14.79909599 67123"
  },
  {
    "name": "KUIPER-00024",
    "noradId": "63738",
    "line1": "1 63738U 25088Q   26200.07619184  .00000106  00000+0  42864-4 0  9990",
    "line2": "2 63738  51.9029 232.1596 0000355  77.3208 282.7794 14.79935537 67514"
  },
  {
    "name": "KUIPER-00025",
    "noradId": "63739",
    "line1": "1 63739U 25088R   26199.83173580  .00000497  00000+0  94107-4 0  9997",
    "line2": "2 63739  51.9029 240.7218 0000386  42.9713 317.1280 14.79944823 67234"
  }
]